     2.10           N: GPS NAV DATA                         RINEX VERSION / TYPE
teqc  2012Jun6                          20190301 21:13:39UTCPGM / RUN BY / DATE
MSXP|IAx86-PII|bcc32 5.0|MSWin95->XP|486/DX+                COMMENT
                                                            END OF HEADER
 5 19  2 28 14  0  0.0 1.147855073214D-06 0.000000000000D+00 0.000000000000D+00
    2.400000000000D+01-1.921875000000D+01 4.781627538364D-09-2.149713207361D+00
   -1.259148120880D-06 5.543174454942D-03 9.208917617798D-06 5.153637147903D+03
    3.960000000000D+05 3.166496753693D-08-3.349900355996D-01-5.215406417847D-08
    9.496487287956D-01 1.932812500000D+02 7.118087641150D-01-8.007476459682D-09
    3.921591940070D-10 1.000000000000D+00 2.042000000000D+03 0.000000000000D+00
    2.000000000000D+00 0.000000000000D+00-1.117587089539D-08 2.400000000000D+01
    3.979800000000D+05
10 19  2 28 15 59 44.0 1.073894090950D-04-8.071765478235D-12 0.000000000000D+00
    2.000000000000D+01-2.309375000000D+01 4.470185999139D-09 1.885121737516D-01
   -1.154839992523D-06 4.379746736959D-03 9.268522262573D-06 5.153663040161D+03
    4.031840000000D+05 2.048909664154D-08-3.127052289480D-01 1.098960638046D-07
    9.628238831251D-01 2.026250000000D+02-2.738677849634D+00-7.947473790182D-09
    3.728726771790D-10 1.000000000000D+00 2.042000000000D+03 0.000000000000D+00
    2.000000000000D+00 0.000000000000D+00 1.862645149231D-09 2.000000000000D+01
    3.979800000000D+05
12 19  2 28 14  0  0.0 2.641431055963D-04-3.183231456205D-12 0.000000000000D+00
    7.000000000000D+01 7.187500000000D+01 3.958021910222D-09-1.476813709047D-01
    3.775581717491D-06 7.507568574511D-03 7.096678018570D-06 5.153692907333D+03
    3.960000000000D+05 1.490116119385D-08 2.897882096673D+00 1.676380634308D-07
    9.840128412503D-01 2.554375000000D+02 1.037354892555D+00-7.919615185870D-09
   -2.571535692719D-11 1.000000000000D+00 2.042000000000D+03 0.000000000000D+00
    2.000000000000D+00 0.000000000000D+00-1.257285475731D-08 7.000000000000D+01
    3.979800000000D+05
15 19  2 28 16  0  0.0-3.257570788264D-04 1.818989403546D-12 0.000000000000D+00
    1.200000000000D+02 1.181250000000D+01 5.592018847977D-09-2.754277486393D+00
    3.818422555923D-07 1.123187434860D-02 6.619840860367D-06 5.153640230179D+03
    4.032000000000D+05 8.568167686462D-08 6.449573592342D-01-2.663582563400D-07
    9.282079849140D-01 2.345312500000D+02 7.654113318714D-01-8.379277716131D-09
    1.675069805085D-10 1.000000000000D+00 2.042000000000D+03 0.000000000000D+00
    2.000000000000D+00 0.000000000000D+00-1.071020960808D-08 1.200000000000D+02
    3.979800000000D+05
16 19  2 28 16  0  0.0-2.223206683993D-05-2.501110429876D-12 0.000000000000D+00
    4.900000000000D+01 8.025000000000D+01 3.875875620452D-09-1.010177075507D+00
    4.179775714874D-06 1.065277773887D-02 7.122755050659D-06 5.153785140991D+03
    4.032000000000D+05 2.719461917877D-07 2.916730735508D+00 3.725290298462D-09
    9.843899054594D-01 2.546250000000D+02 5.453362689988D-01-7.847112293291D-09
   -4.107313794632D-11 1.000000000000D+00 2.042000000000D+03 0.000000000000D+00
    2.000000000000D+00 0.000000000000D+00-1.071020960808D-08 4.900000000000D+01
    3.979800000000D+05
20 19  2 28 16  0  0.0 5.226559005678D-04 3.410605131648D-13 0.000000000000D+00
    1.500000000000D+01-2.756250000000D+01 5.134856539968D-09 1.919825530771D+00
   -1.451000571251D-06 4.389260779135D-03 9.134411811829D-06 5.153676597595D+03
    4.032000000000D+05 2.607703208923D-08-4.281754697870D-01 7.078051567078D-08
    9.303903031992D-01 1.865625000000D+02 2.296132847995D+00-8.193913103582D-09
    3.110843804777D-10 1.000000000000D+00 2.042000000000D+03 0.000000000000D+00
    2.000000000000D+00 0.000000000000D+00-8.381903171539D-09 1.500000000000D+01
    3.979800000000D+05
21 19  2 28 16  0  0.0-2.414807677269D-04 7.275957614183D-12 0.000000000000D+00
    1.900000000000D+01-7.409375000000D+01 4.937705799790D-09 4.734433646108D-01
   -4.014000296593D-06 2.477688645013D-02 6.973743438721D-06 5.153784523010D+03
    4.032000000000D+05-2.738088369370D-07-1.413967971362D+00-2.421438694000D-07
    9.471047815500D-01 2.459687500000D+02-1.471524272721D+00-8.733935352723D-09
   -1.475061461864D-10 1.000000000000D+00 2.042000000000D+03 0.000000000000D+00
    2.000000000000D+00 0.000000000000D+00-1.024454832077D-08 1.900000000000D+01
    3.979800000000D+05
25 19  2 28 16  0  0.0-7.268143817782D-04-5.229594535194D-12 0.000000000000D+00
    2.100000000000D+01 7.350000000000D+01 4.229461669780D-09 5.855972418471D-01
    3.950670361519D-06 8.276331820525D-03 7.344409823418D-06 5.153751176834D+03
    4.032000000000D+05-8.940696716309D-08 2.834635342420D+00 1.229345798492D-07
    9.714544824414D-01 2.426875000000D+02 8.611312540761D-01-8.032119858115D-09
   -1.639354069161D-10 1.000000000000D+00 2.042000000000D+03 0.000000000000D+00
    2.000000000000D+00 0.000000000000D+00 5.587935447693D-09 2.100000000000D+01
    3.979800000000D+05
26 19  2 28 16  0  0.0 1.367484219372D-04 1.023181539495D-11 0.000000000000D+00
    2.000000000000D+01 7.809375000000D+01 4.583762258648D-09-9.135692556551D-02
    3.926455974579D-06 3.687442629598D-03 7.195398211479D-06 5.153565465927D+03
    4.032000000000D+05 6.146728992462D-08 2.807695354890D+00 7.450580596924D-09
    9.527846473049D-01 2.356250000000D+02 1.186282084496D-01-8.208199453463D-09
   -1.171477359563D-10 1.000000000000D+00 2.042000000000D+03 0.000000000000D+00
    2.000000000000D+00 0.000000000000D+00 7.450580596924D-09 2.000000000000D+01
    3.979800000000D+05
27 19  2 28 16  0  0.0-7.663061842322D-05-7.617018127348D-12 0.000000000000D+00
    7.000000000000D+01 1.375000000000D+00 4.134458109206D-09-1.863015937909D+00
    8.195638656616D-08 6.762508535758D-03 3.425404429436D-06 5.153634670258D+03
    4.032000000000D+05-6.146728992462D-08-2.408008900996D+00-8.940696716309D-08
    9.784861752025D-01 3.239062500000D+02 4.356966403082D-01-8.043548938019D-09
    7.357449371970D-11 1.000000000000D+00 2.042000000000D+03 0.000000000000D+00
    2.000000000000D+00 0.000000000000D+00 1.396983861923D-09 7.000000000000D+01
    3.979800000000D+05
29 19  2 28 16  0  0.0 2.601137384772D-04-8.753886504564D-12 0.000000000000D+00
    1.440000000000D+02-3.218750000000D+00 4.076241122419D-09-1.044704448156D+00
   -1.918524503708D-07 7.474137237296D-04 3.727152943611D-06 5.153556522369D+03
    4.032000000000D+05 1.303851604462D-08-2.341371604417D+00-3.725290298462D-09
    9.853360813743D-01 3.200000000000D+02 1.451318113202D+00-8.032477794018D-09
    1.107188993266D-11 1.000000000000D+00 2.042000000000D+03 0.000000000000D+00
    2.800000000000D+00 0.000000000000D+00-1.024454832077D-08 1.440000000000D+02
    3.979800000000D+05
31 19  2 28 16  0  0.0 5.544023588300D-05-2.728484105319D-12 0.000000000000D+00
    5.300000000000D+01 2.468750000000D+01 4.630907213254D-09 1.222248062989D+00
    1.536682248116D-06 9.259131620638D-03 8.314847946167D-06 5.153569080353D+03
    4.032000000000D+05 7.078051567078D-08 1.813209121769D+00 9.313225746155D-08
    9.603891236962D-01 2.161250000000D+02-1.112574800349D-02-8.001047824280D-09
   -5.160929461567D-10 1.000000000000D+00 2.042000000000D+03 0.000000000000D+00
    2.000000000000D+00 0.000000000000D+00-1.350417733192D-08 5.300000000000D+01
    3.979800000000D+05
